Org Name,Org Code,Org Type,Function,Contact Name,Address 1,Address 2,Town,State,Zip,Phone,Fax,Grade,location,coordinates,lat,lon
Boston: Adams Elementary School,350302,Public School,Principal,Joanna McKeigue Cruz,165 Webster Street,,East Boston,MA,2128,617-635-8383,617-635-7822,"PK,K,01,02,03,04,05,06","165 Webster Street, East Boston, MA","(42.36552815, -71.03494070052452)",42.36552815,-71.03494070052452
Boston: Alighieri Dante Montessori School,350066,Public School,Principal,Jessica Gorham,37 Gove Street,,East Boston,MA,2128,617-635-8529,617-635-7691,"PK,K,01,02,03,04,05,06","37 Gove Street, East Boston, MA","(42.3715646, -71.0380083)",42.3715646,-71.0380083
Boston: Another Course To College,350541,Public School,Principal,Michele Pellam,612 Metropolitan Av,,Hyde Park,MA,2136,617-635-8865,617-635-8866,"09,10,11,12","612 Metropolitan Av, Hyde Park, MA","(42.26519695, -71.11739507455079)",42.26519695,-71.11739507455079
Boston: Baldwin Early Learning Pilot Academy,350003,Public School,Principal,Min-jen Taylor,121 Corey Road,,Brighton,MA,2135,617-635-8409,617-635-9544,"PK,K,01","121 Corey Road, Brighton, MA","(42.3420737, -71.14044353378111)",42.3420737,-71.14044353378111
Boston: Bates Elementary School,350278,Public School,Principal,Rodolfo Morales,426 Beech Street,,Roslindale,MA,2131,617-635-8064,617-635-8068,"PK,K,01,02,03,04,05,06","426 Beech Street, Roslindale, MA","(42.2776778, -71.13511027886919)",42.2776778,-71.13511027886919
Boston: Beethoven Elementary School,350021,Public School,Principal,Edward Puliafico,5125 Washington Street,,West Roxbury,MA,2132,617-635-8149,617-635-8155,"PK,K,01,02","5125 Washington Street, West Roxbury, MA","(42.263526, -71.1558297)",42.263526,-71.1558297
Boston: Blackstone Elementary School,350390,Public School,Principal,Shammah Daniels,380 Shawmut Avenue,,Boston,MA,2118,617-635-8471,617-635-7975,"PK,K,01,02,03,04,05,06","380 Shawmut Avenue, Boston, MA","(42.341143, -71.072126)",42.341143,-71.072126
Boston: Boston Adult Tech Academy,350548,Public School,Principal,Benjamin Helfat,20 Church St,,Back Bay,MA,2116,617-635-1542,617-635-6362,"11,12","20 Church St, Back Bay, MA",,,
Boston: Boston Arts Academy,350546,Public School,Principal,Anne Clark,174 Ipswich Street,,Boston,MA,2215,617-635-6470,617-635-8854,"09,10,11,12","174 Ipswich Street, Boston, MA","(42.347005, -71.094415)",42.347005,-71.094415
Boston: Boston Collaborative High School,350755,Public School,Principal,Sherri Neasman,215 Dorchester St,,South Boston,MA,2127,617-635-8035,617-635-6821,"09,10,11,12","215 Dorchester St, South Boston, MA","(42.333728300000004, -71.05090619565084)",42.333728300000004,-71.05090619565084
Boston: Boston Community Leadership Academy,350558,Public School,Principal,Ondrea Johnston,655 Metropolitan Ave,,Hyde Park,MA,2136,617-635-8937,617-635-8942,"07,08,09,10,11,12","655 Metropolitan Ave, Hyde Park, MA","(42.263065499999996, -71.11787896758847)",42.263065499999996,-71.11787896758847
Boston: Boston International High School & Newcomers Academy,350507,Public School,Principal,Thomas King,100 Maxwell St,,Dorchester,MA,2124,617-635-9373,617-635-8224,"09,10,11,12","100 Maxwell St, Dorchester, MA","(42.2812096, -71.0808842)",42.2812096,-71.0808842
Boston: Boston Latin Academy,350545,Public School,Principal,Gavin Smith,205 Townsend Street,,Dorchester,MA,2121,617-635-9957,617-635-6696,"07,08,09,10,11,12","205 Townsend Street, Dorchester, MA","(42.31612785, -71.08437137298296)",42.31612785,-71.08437137298296
Boston: Boston Latin School,350560,Public School,Principal,Jason Gallagher,78 Avenue Louis Pasteur,,Boston,MA,2115,617-635-8895,617-635-7883,"07,08,09,10,11,12","78 Avenue Louis Pasteur, Boston, MA","(42.337865949999994, -71.10127414497714)",42.337865949999994,-71.10127414497714
Boston: Boston Teachers Union K-8 Pilot,350012,Public School,Principal,Lauren Clarke-Mason,25 Walk Hill Street,,Jamaica Plain,MA,2130,617-635-7717,617-635-6982,"PK,K,01,02,03,04,05,06,07,08","25 Walk Hill Street, Jamaica Plain, MA","(42.294674099999995, -71.11597456939973)",42.294674099999995,-71.11597456939973
Boston: Bradley Elementary School,350215,Public School,Principal,Claire Carney,110 Beachview Road,,East Boston,MA,2128,617-635-8422,617-635-6927,"PK,K,01,02,03,04,05,06","110 Beachview Road, East Boston, MA","(42.391763499999996, -71.00488394745778)",42.391763499999996,-71.00488394745778
Boston: Brighton High School,350505,Public School,Principal,Andrew Bott,25 Warren Street,,Brighton,MA,2135,617-635-9873,617-635-9892,"07,08,09,10,11,12","25 Warren Street, Brighton, MA","(42.349246750000006, -71.14544342050723)",42.349246750000006,-71.14544342050723
Boston: Burke High School,350525,Public School,Principal,Amilcar Silva,60 Washington Street,,Dorchester,MA,2121,617-635-9837,617-635-9852,"07,08,09,10,11,12","60 Washington Street, Dorchester, MA","(42.29732914583334, -71.071885)",42.29732914583334,-71.071885
Boston: Carter School,350036,Public School,Principal,Mark O'connor,270 Columbia Rd,,Dorchester,MA,2121,617-635-9832,617-635-7935,"07,08,09,10,11,12","270 Columbia Rd, Dorchester, MA","(42.3214888, -71.0528615)",42.3214888,-71.0528615
Boston: Channing Elementary School,350360,Public School,Principal,Carline Pignato,35 Sunnyside Street,,Hyde Park,MA,2136,617-635-8722,617-635-8564,"PK,K,01,02,03,04,05,06","35 Sunnyside Street, Hyde Park, MA","(42.2516416, -71.1333677)",42.2516416,-71.1333677
Boston: Charlestown High School,350515,Public School,Principal,Ajay Trivedi,240 Medford Street,,Charlestown,MA,2129,617-635-9914,617-635-9928,"07,08,09,10,11,12","240 Medford Street, Charlestown, MA","(42.3802573, -71.0609101)",42.3802573,-71.0609101
Boston: Chittick Elementary School,350154,Public School,Principal,Michelle Burnett-Herndon,154 Ruskindale Road,,Mattapan,MA,2126,617-635-8652,617-635-6925,"PK,K,01,02,03,04,05,06","154 Ruskindale Road, Mattapan, MA","(42.26736705, -71.10446074712252)",42.26736705,-71.10446074712252
Boston: Clap Elementary School,350298,Public School,Principal,Emma Fialka-Feldman,35 Harvest Street,,Dorchester,MA,2125,617-635-8672,617-635-6389,"PK,K,01,02,03,04,05,06","35 Harvest Street, Dorchester, MA","(42.3230248, -71.0580501)",42.3230248,-71.0580501
Boston: Community Academy,350518,Public School,Principal,Sonie Felix,25 Glen Road,,Jamaica Plain,MA,2130,617-635-8950,617-635-7731,"09,10,11,12","25 Glen Road, Jamaica Plain, MA","(42.30891325, -71.10348401327269)",42.30891325,-71.10348401327269
Boston: Community Academy of Science and Health,350581,Public School,Principal,Robin Lee,11 Charles Street,,Dorchester,MA,2122,617-635-8950,617-635-8948,"09,10,11,12","11 Charles Street, Dorchester, MA","(42.3008933, -71.06118323468127)",42.3008933,-71.06118323468127
Boston: Condon K-8 School,350146,Public School,Principal,Carlitta Camillo,200 D Street,,South Boston,MA,2127,617-635-8608,617-635-8611,"PK,K,01,02,03,04,05,06,07,08","200 D Street, South Boston, MA","(42.3380578, -71.0527511)",42.3380578,-71.0527511
Boston: Conley Elementary School,350122,Public School,Principal,Jennifer Eddington,450 Poplar Street,,Roslindale,MA,2131,617-635-8099,617-635-6417,"PK,K,01,02,03,04,05,06","450 Poplar Street, Roslindale, MA","(42.274649, -71.12728945634659)",42.274649,-71.12728945634659
Boston: Curley K-8 School,350020,Public School,Principal,Katherine Grassa,493 Centre St.,,Jamaica Plain,MA,2130,617-635-8176,617-635-8184,"PK,K,01,02,03,04,05,06,07,08","493 Centre St., Jamaica Plain, MA","(42.3185211, -71.11359911142097)",42.3185211,-71.11359911142097
Boston: Dearborn 6-12 STEM Academy,350074,Public School,Principal,Darlene Marcano,36 Winthrop St,,Roxbury,MA,2119,617-635-8412,617-635-8419,"06,07,08,09,10,11,12","36 Winthrop St, Roxbury, MA","(42.3264532, -71.0807518)",42.3264532,-71.0807518
Boston: Dever Elementary School,350268,Public School,Principal,Margaret Reardon,325 Mt Vernon Street,,Dorchester,MA,2125,617-635-8694,617-635-8097,"PK,K,01,02,03,04,05,06","325 Mt Vernon Street, Dorchester, MA","(42.3170241, -71.0434486610456)",42.3170241,-71.0434486610456
Boston: East Boston Early Education Center,350009,Public School,Principal,Joy Ramnarine,135 Grove Street,,East Boston,MA,2128,617-635-6456,617-635-8864,"PK,K,01","135 Grove Street, East Boston, MA","(42.2648, -71.1589)",42.2648,-71.1589
Boston: East Boston High School,350530,Public School,Principal,Phillip Brangiforte,86 White Street,,East Boston,MA,2128,617-635-9896,617-635-9726,"07,08,09,10,11,12","86 White Street, East Boston, MA","(42.3811091, -71.03495138168807)",42.3811091,-71.03495138168807
Boston: Edison K-8 School,350375,Public School,Principal,Elvis Henriquez,60 Glenmont Road,,Brighton,MA,2135,617-635-8436,617-635-8446,"PK,K,01,02,03,04,05,06,07,08","60 Glenmont Road, Brighton, MA","(42.3454253, -71.16065526960352)",42.3454253,-71.16065526960352
Boston: Eliot K-8 Innovation School,350096,Public School,Principal,Traci Griffith,16 Charter Street,,Boston,MA,2113,617-635-8545,617-635-8550,"PK,K,01,02,03,04,05,06,07,08","16 Charter Street, Boston, MA","(42.3660949, -71.0533691)",42.3660949,-71.0533691
Boston: Ellis Elementary School,350072,Public School,Principal,Lemuel Ivy,302 Walnut Avenue,,Roxbury,MA,2119,617-635-8257,617-635-8262,"PK,K,01,02,03,04,05,06","302 Walnut Avenue, Roxbury, MA","(42.316402, -71.093122)",42.316402,-71.093122
Boston: Ellison-Parks Early Education School,350008,Public School,Principal,Benjamin Rockoff,108 Babson Street,,Mattapan,MA,2126,617-635-7680,617-635-6491,"PK,K,01,02,03","108 Babson Street, Mattapan, MA","(42.27175939999999, -71.09168648848953)",42.27175939999999,-71.09168648848953
Boston: English High School,350535,Public School,Principal,Caitlin Murphy,144 McBride Street,,Jamaica Plain,MA,2130,617-635-8979,617-635-8988,"07,08,09,10,11,12","144 McBride Street, Jamaica Plain, MA","(42.3063673, -71.1092262)",42.3063673,-71.1092262
Boston: Everett Elementary School,350088,Public School,Principal,Gwendolyn Rice,71 Pleasant Street,,Dorchester,MA,2125,617-635-8778,617-635-8780,"PK,K,01,02,03,04,05,06","71 Pleasant Street, Dorchester, MA","(42.31363965, -71.05981655299136)",42.31363965,-71.05981655299136
Boston: Excel High School,350522,Public School,Principal,Jerleen John,95 G. Street,South Boston Education Complex,South Boston,MA,2127,617-635-9870,617-635-9711,"09,10,11,12","95 G. Street, South Boston, MA","(42.33289655, -71.04482751902502)",42.33289655,-71.04482751902502
Boston: Fenway High School,350540,Public School,Principal,Geoffrey Walker,67 Alleghany St,,Roxbury,MA,2120,617-635-9911,617-635-9204,"09,10,11,12","67 Alleghany St, Roxbury, MA","(42.3306376, -71.099189)",42.3306376,-71.099189
Boston: Frederick Pilot Middle School,350383,Public School,Principal,Meghan Mcgoldrick,270 Columbia Road,,Dorchester,MA,2121,617-635-1650,617-635-1637,"06,07,08","270 Columbia Road, Dorchester, MA","(42.3214888, -71.0528615)",42.3214888,-71.0528615
Boston: Gardner Pilot Academy,350326,Public School,Principal,Erica Herman,30 Athol Street,,Allston,MA,2134,617-635-8365,617-635-7812,"PK,K,01,02,03,04,05,06,07,08","30 Athol Street, Allston, MA","(42.36075595, -71.13397379082869)",42.36075595,-71.13397379082869
Boston: Greater Egleston High School,350543,Public School,Principal,Kevin Brill,80 School St,,Roxbury,MA,2119,617-635-6429,617-635-6469,"09,10,11,12","80 School St, Roxbury, MA","(42.3141479, -71.0992242)",42.3141479,-71.0992242
Boston: Greenwood Sarah K-8 School,350308,Public School,Principal,Antonelli Mejia,189 Glenway Street,,Dorchester,MA,2121,617-635-8710,617-635-8713,"PK,K,01,02,03,04,05,06,07,08","189 Glenway Street, Dorchester, MA","(42.2969265, -71.0803295)",42.2969265,-71.0803295
Boston: Grew Elementary School,350135,Public School,Principal,Michelle Simon,40 Gordon Avenue,,Hyde Park,MA,2136,617-635-8715,617-635-8718,"PK,K,01,02,03,04,05,06","40 Gordon Avenue, Hyde Park, MA","(42.256601849999996, -71.12692633672484)",42.256601849999996,-71.12692633672484
Boston: Guild Elementary School,350062,Public School,Principal,Karen McCarthy,195 Leyden Street,,East Boston,MA,2128,617-635-8523,617-635-8526,"PK,K,01,02,03,04,05,06","195 Leyden Street, East Boston, MA","(42.3885612, -71.0041991)",42.3885612,-71.0041991
Boston: Hale Elementary School,350243,Public School,Principal,Candice Whitmore,51 Cedar Street,,Roxbury,MA,2119,617-635-8205,617-635-8558,"PK,K,01,02,03,04,05,06","51 Cedar Street, Roxbury, MA","(42.325594249999995, -71.09101457721474)",42.325594249999995,-71.09101457721474
Boston: Haley Pilot School,350077,Public School,Principal,Kathleen Sullivan,570 American Legion Highway,,Roslindale,MA,2131,617-635-8169,617-635-8173,"PK,K,01,02,03,04,05,06,07,08","570 American Legion Highway, Roslindale, MA","(42.28630805, -71.10783870273136)",42.28630805,-71.10783870273136
Boston: Harvard-Kent Elementary School,350200,Public School,Principal,Mark Silva,50 Bunker Hill Street,,Charlestown,MA,2129,617-635-8358,617-635-8364,"PK,K,01,02,03,04,05,06","50 Bunker Hill Street, Charlestown, MA","(42.3767055, -71.05778917400042)",42.3767055,-71.05778917400042
Boston: Haynes Early Education Center,350010,Public School,Principal,Donette Wilson-Wood,263 Blue Hill Avenue,,Roxbury,MA,2119,617-635-6446,617-635-9795,"PK,K,01","263 Blue Hill Avenue, Roxbury, MA","(42.3152461, -71.0789944)",42.3152461,-71.0789944
Boston: Henderson K-12 Inclusion School Lower,350266,Public School,Principal,Stephanie Sibley,1669 Dorchester Avenue,,Dorchester,MA,2122,617-635-8725,617-635-8728,"PK,K,01","1669 Dorchester Avenue, Dorchester, MA","(42.2938463, -71.06225464489052)",42.2938463,-71.06225464489052
Boston: Henderson K-12 Inclusion School Upper,350426,Public School,Principal,Stephanie Sibley,18 Croftland Av,,Dorchester,MA,2124,617-635-6365,617-635-6367,"02,03,04,05,06,07,08,09,10,11,12","18 Croftland Av, Dorchester, MA","(42.2812487, -71.0695697)",42.2812487,-71.0695697
Boston: Hennigan K-8 School,350153,Public School,Principal,Tanya Woodard,200 Heath Street,,Jamaica Plain,MA,2130,617-635-8264,617-635-8271,"K,01,02,03,04,05,06,07,08","200 Heath Street, Jamaica Plain, MA","(42.326114450000006, -71.10674285895824)",42.326114450000006,-71.10674285895824
Boston: Hernandez K-8 School,350691,Public School,Principal,Carolina Brito,61 School Street,,Roxbury,MA,2119,617-635-8187,617-635-8190,"PK,K,01,02,03,04,05,06,07,08","61 School Street, Roxbury, MA","(42.3139093, -71.097888)",42.3139093,-71.097888
Boston: Higginson Inclusion K0-2 School,350015,Public School,Principal,Karla Jenkins,160 Harrishof Street,,Roxbury,MA,2119,617-635-8247,617-635-8252,"PK,K,01,02","160 Harrishof Street, Roxbury, MA","(42.31741665, -71.09179895396954)",42.31741665,-71.09179895396954
Boston: Higginson-Lewis K-8 School,350377,Public School,Principal,Dana Skelly,131 Walnut Avenue,,Roxbury,MA,2119,617-635-8137,617-635-8252,"03,04,05,06,07,08","131 Walnut Avenue, Roxbury, MA","(42.32089155, -71.08687283010791)",42.32089155,-71.08687283010791
Boston: Holmes Elementary School,350138,Public School,Principal,Edverette Brewster,40 School Street,,Dorchester,MA,2124,617-635-8681,617-635-8685,"PK,K,01,02,03,04,05,06","40 School Street, Dorchester, MA","(42.29684825, -71.07579804608585)",42.29684825,-71.07579804608585
Boston: Horace Mann School for the Deaf Hard of Hearing,350750,Public School,Principal,Michelle Eisan-Smith,40 Armington Street,,Allston,MA,2134,617-635-8534,617-635-6379,"PK,K,01,02,03,04,05,06,07,08,09,10,11,12","40 Armington Street, Allston, MA","(42.3521617, -71.1375176)",42.3521617,-71.1375176
Boston: Hurley K-8 School,350182,Public School,Principal,Bethy Verano,70 Worcester Street,,Boston,MA,2118,617-635-8489,617-635-6868,"PK,K,01,02,03,04,05,06,07,08","70 Worcester Street, Boston, MA","(42.33890905, -71.07796447800828)",42.33890905,-71.07796447800828
Boston: Kennedy John F Elementary School,350166,Public School,Principal,Christine Copeland,7 Bolster Street,,Jamaica Plain,MA,2130,617-635-8127,617-635-8130,"PK,K,01,02,03,04,05,06","7 Bolster Street, Jamaica Plain, MA","(42.3218161, -71.1056342)",42.3218161,-71.1056342
Boston: Kennedy Patrick J Elementary School,350264,Public School,Principal,Kristen Goncalves,343 Saratoga Street,,East Boston,MA,2128,617-635-8466,617-635-8469,"PK,K,01,02,03,04,05,06","343 Saratoga Street, East Boston, MA","(42.37853845, -71.03012695795454)",42.37853845,-71.03012695795454
Boston: Kenny Elementary School,350328,Public School,Principal,Shereka King,19 Oakton Avenue,,Dorchester,MA,2122,617-635-8789,617-635-8791,"PK,K,01,02,03,04,05,06","19 Oakton Avenue, Dorchester, MA","(42.28653365, -71.05323455593364)",42.28653365,-71.05323455593364
Boston: Kilmer K-8 School,350190,Public School,Principal,Joseph Foley,35 Baker Street,,West Roxbury,MA,2132,617-635-8060,617-635-8063,"PK,K,01,02,03,04,05,06,07,08","35 Baker Street, West Roxbury, MA","(42.2720176, -71.1625165)",42.2720176,-71.1625165
Boston: King Elementary School,350376,Public School,Principal,Grace Coleman,77 Lawrence Avenue,,Dorchester,MA,2121,617-635-8212,617-635-9356,"PK,K,01,02,03,04,05,06","77 Lawrence Avenue, Dorchester, MA","(42.3109333, -71.07653906727731)",42.3109333,-71.07653906727731
Boston: Lee Academy,350001,Public School,Principal,Alexandre Chery,25 Dunbar Avenue,,Dorchester,MA,2124,617-635-8618,617-635-8621,"PK,K,01,02,03","25 Dunbar Avenue, Dorchester, MA","(42.286699049999996, -71.07272047867454)",42.286699049999996,-71.07272047867454
Boston: Lee K-8 School,350183,Public School,Principal,Paul Kennedy,155 Talbot Avenue,,Dorchester,MA,2124,617-635-8687,617-635-8692,"PK,K,01,02,03,04,05,06,07,08","155 Talbot Avenue, Dorchester, MA","(42.29190145, -71.08043208216999)",42.29190145,-71.08043208216999
Boston: Lyndon K-8 School,350262,Public School,Principal,Catherine Carney,20 Mt. Vernon Street,,West Roxbury,MA,2132,617-635-6824,617-635-6828,"PK,K,01,02,03,04,05,06,07,08","20 Mt. Vernon Street, West Roxbury, MA","(42.2926585, -71.1522903)",42.2926585,-71.1522903
Boston: Lyon High School,350655,Public School,Principal,Jean-Dominique Herve Anoh,95 Beechcroft Street,,Brighton,MA,2135,617-635-8351,617-635-8353,"09,10,11,12","95 Beechcroft Street, Brighton, MA","(42.352128050000005, -71.16072818669493)",42.352128050000005,-71.16072818669493
Boston: Lyon K-8 School,350004,Public School,Principal,Jean-Dominique Herve Anoh,50 Beechcroft Street,,Brighton,MA,2135,617-635-7945,617-635-7949,"K,01,02,03,04,05,06,07,08","50 Beechcroft Street, Brighton, MA","(42.3511302, -71.1614958)",42.3511302,-71.1614958
Boston: Madison Park Technical Vocational High School,350537,Public School,Principal,Sidney Brown,75 Malcolm X Blvd,,Roxbury,MA,2120,617-635-8970,617-635-9831,"09,10,11,12","75 Malcolm X Blvd, Roxbury, MA","(42.329838, -71.08716440816326)",42.329838,-71.08716440816326
Boston: Manning Elementary School,350184,Public School,Principal,Allyson Hart,130 Louders Lane,,Jamaica Plain,MA,2130,617-635-8102,617-635-9348,"PK,K,01,02,03,04,05,06","130 Louders Lane, Jamaica Plain, MA",,,
Boston: Margarita Muniz Academy,350549,Public School,Principal,Dania Vazquez,20 Child Street,,Boston,MA,2130,617-470-6907,--,"09,10,11,12","20 Child Street, Boston, MA","(42.3073557, -71.1142517)",42.3073557,-71.1142517
Boston: Mario Umana Academy,350656,Public School,Principal,Christina Michel,312 Border Street,,East Boston,MA,2128,617-635-8481,617-635-9545,"PK,K,01,02,03,04,05,06,07,08","312 Border Street, East Boston, MA","(42.378079400000004, -71.04146317452285)",42.378079400000004,-71.04146317452285
Boston: Mason Elementary School,350304,Public School,Principal,Carolyn Allston,150 Norfolk Avenue,,Roxbury,MA,2119,617-635-8405,617-635-8406,"PK,K,01,02,03,04,05","150 Norfolk Avenue, Roxbury, MA","(42.32611855, -71.07135044426468)",42.32611855,-71.07135044426468
Boston: Mather Elementary School,350227,Public School,Principal,Hai Son,1 Parish Street,,Dorchester,MA,2122,617-635-8757,617-635-8762,"PK,K,01,02,03,04,05","1 Parish Street, Dorchester, MA","(42.308308, -71.06087346688483)",42.308308,-71.06087346688483
Boston: Mattahunt Elementary School,350016,Public School,Principal,Walter Henderson,123 Alabama St,,Mattapan,MA,2126,617-635-8792,617-635-8799,"PK,K,01,02,03,04,05,06","123 Alabama St, Mattapan, MA","(42.27657266045589, -71.1017082076193)",42.27657266045589,-71.1017082076193
Boston: McKay K-8 School,350080,Public School,Principal,Jason Meland,122 Cottage Street,,East Boston,MA,2128,617-635-8510,617-635-8515,"PK,K,01,02,03,04,05,06,07,08","122 Cottage Street, East Boston, MA","(42.3692295, -71.0347892)",42.3692295,-71.0347892
Boston: McKinley Schools,350363,Public School,Principal,Cindie Neilson,90 Warren Avenue,,Boston,MA,2116,617-635-9976,617-635-9985,"PK,K,01,02,03,04,05,06,07,08,09,10,11,12","90 Warren Avenue, Boston, MA","(42.34426675, -71.07379692197868)",42.34426675,-71.07379692197868
Boston: Mendell Elementary School,350100,Public School,Principal,Michelle Morrissey,164 School Street,,Roxbury,MA,2119,617-635-8234,617-635-8238,"PK,K,01,02,03,04,05,06","164 School Street, Roxbury, MA","(42.3165878, -71.1016242)",42.3165878,-71.1016242
Boston: Mildred Avenue K-8 School,350378,Public School,Principal,Kristina Reeves-barber,5 Mildred Avenue,,Mattapan,MA,2126,617-635-1642,617-635-1641,"PK,K,01,02,03,04,05,06,07,08","5 Mildred Avenue, Mattapan, MA","(42.27582625, -71.0913064440368)",42.27582625,-71.0913064440368
Boston: Mozart Elementary School,350237,Public School,Principal,Lianne Hughes Shackelford,236 Beech Street,,Roslindale,MA,2131,617-635-8082,617-635-8087,"PK,K,01,02,03,04,05,06","236 Beech Street, Roslindale, MA","(42.28118965, -71.14102152363313)",42.28118965,-71.14102152363313
Boston: Murphy K-8 School,350240,Public School,Principal,Courtney Sheppeck,1 Worrell Street,,Dorchester,MA,2122,617-635-8781,617-635-8787,"PK,K,01,02,03,04,05,06,07,08","1 Worrell Street, Dorchester, MA","(42.294162650000004, -71.04910276683086)",42.294162650000004,-71.04910276683086
Boston: New Mission High School,350542,Public School,Principal,William Thomas,655 Metropolitan Ave,,Hyde Park,MA,2136,617-635-6437,617-635-6332,"07,08,09,10,11,12","655 Metropolitan Ave, Hyde Park, MA","(42.263065499999996, -71.11787896758847)",42.263065499999996,-71.11787896758847
Boston: O'Bryant School of Math & Science,350575,Public School,Principal,Patreka Wood,55 Malcolm X Blvd,,Roxbury,MA,2120,617-635-9932,617-635-7769,"07,08,09,10,11,12","55 Malcolm X Blvd, Roxbury, MA","(42.329858, -71.08715808163265)",42.329858,-71.08715808163265
Boston: O'Donnell Elementary School,350141,Public School,Principal,Emily Sproviero,33 Trenton Street,,East Boston,MA,2128,617-635-8454,617-635-8459,"PK,K,01,02,03,04,05,06","33 Trenton Street, East Boston, MA","(42.378047949999996, -71.03799418974768)",42.378047949999996,-71.03799418974768
Boston: Ohrenberger School,350258,Public School,Principal,Terrance Johnson,175 West Boundary Road,,West Roxbury,MA,2132,617-635-8157,617-635-8163,"03,04,05,06,07,08","175 West Boundary Road, West Roxbury, MA","(42.2612274, -71.14888737629883)",42.2612274,-71.14888737629883
Boston: Orchard Gardens K-8 School,350257,Public School,Principal,Lauren Murdock,906 Albany Street,,Roxbury,MA,2119,617-635-1656,617-635-1634,"PK,K,01,02,03,04,05,06,07,08","906 Albany Street, Roxbury, MA","(42.3306514, -71.0771617)",42.3306514,-71.0771617
Boston: Otis Elementary School,350156,Public School,Principal,Paula Cerqueira-Goncalve,218 Marion Street,,East Boston,MA,2128,617-635-8372,617-635-8376,"PK,K,01,02,03,04,05,06","218 Marion Street, East Boston, MA","(42.37526475, -71.03390700574874)",42.37526475,-71.03390700574874
Boston: Perkins Elementary School,350231,Public School,Principal,Heela Roshan,50 Burke Street,,South Boston,MA,2127,617-635-8601,617-635-9774,"PK,K,01,02,03,04,05,06","50 Burke Street, South Boston, MA","(42.337018, -71.0851405)",42.337018,-71.0851405
Boston: Perry Elementary School,350255,Public School,Principal,Andrew Rollins,745 E. 7th Street,,South Boston,MA,2127,617-635-8840,617-635-6387,"PK,K,01,02,03,04,05,06","745 E. 7th Street, South Boston, MA",,,
Boston: Philbrick Elementary School,350172,Public School,Principal,Danladi Bobbitt,40 Philbrick Street,,Roslindale,MA,2131,617-635-8069,617-635-7927,"PK,K,01,02,03,04,05,06","40 Philbrick Street, Roslindale, MA","(42.28539495, -71.11773021683993)",42.28539495,-71.11773021683993
Boston: Quincy Elementary School,350286,Public School,Principal,Cynthia Soo hoo,885 Washington Street,,Boston,MA,2111,617-635-8497,617-635-7778,"PK,K,01,02,03,04,05","885 Washington Street, Boston, MA","(42.3479909, -71.064924)",42.3479909,-71.064924
Boston: Quincy Upper School,350565,Public School,Principal,Richard Chang,152 Arlington Street,,Boston,MA,2116,617-635-8940,617-635-1524,"06,07,08,09,10,11,12","152 Arlington Street, Boston, MA","(42.3483857, -71.0688702)",42.3483857,-71.0688702
Boston: Roosevelt K-8 School,350116,Public School,Principal,Bannet Steele,95 Needham Road,,Hyde Park,MA,2136,617-635-8676,617-635-8679,"PK,K,01,02,03,04,05,06,07,08","95 Needham Road, Hyde Park, MA","(42.242931299999995, -71.12406536192915)",42.242931299999995,-71.12406536192915
Boston: Russell Elementary School,350366,Public School,Principal,Derrick Ciesla,750 Columbia Road,,Dorchester,MA,2125,617-635-8803,617-635-9768,"PK,K,01,02,03,04,05","750 Columbia Road, Dorchester, MA","(42.3203532, -71.0595351)",42.3203532,-71.0595351
Boston: Shaw Elementary School,350014,Public School,Principal,Tinu Arowosegbe,429 Norfolk Street,,Dorchester,MA,2124,617-635-8777,617-635-8721,"PK,K,01,02,03,04","429 Norfolk Street, Dorchester, MA","(42.2890625, -71.073887)",42.2890625,-71.073887
Boston: Snowden International High School,350690,Public School,Principal,Raquel Martinez,150 Newbury Street,,Boston,MA,2116,617-635-9989,617-635-9996,"09,10,11,12","150 Newbury Street, Boston, MA","(42.3505737, -71.0779829)",42.3505737,-71.0779829
Boston: Sumner Elementary School,350052,Public School,Principal,Meghan Welch,15 Basile Street,,Roslindale,MA,2131,617-635-8131,617-635-8136,"PK,K,01,02,03,04,05,06","15 Basile Street, Roslindale, MA","(42.28645695, -71.12688714732712)",42.28645695,-71.12688714732712
Boston: Taylor Elementary School,350054,Public School,Principal,Jennifer Marks,1060 Morton Street,,Mattapan,MA,2126,617-635-8731,617-635-6877,"PK,K,01,02,03,04,05,06","1060 Morton Street, Mattapan, MA","(42.2778238, -71.0774497)",42.2778238,-71.0774497
Boston: TechBoston Academy,350657,Public School,Principal,Patrick Cleary,9 Peacevale Road,,Dorchester,MA,2124,617-635-1615,617-635-1622,"06,07,08,09,10,11,12","9 Peacevale Road, Dorchester, MA","(42.285233950000006, -71.07592660206873)",42.285233950000006,-71.07592660206873
Boston: Tobin K-8 School,350229,Public School,Principal,Natasha Halfkenny,40 Smith St,,Roxbury,MA,2120,617-635-8393,617-635-7900,"PK,K,01,02,03,04,05,06,07,08","40 Smith St, Roxbury, MA","(42.332964, -71.0983567)",42.332964,-71.0983567
Boston: Trotter Elementary School,350370,Public School,Principal,Sarita Thomas,135 Humboldt Avenue,,Dorchester,MA,2121,617-635-8225,617-635-7915,"PK,K,01,02,03,04,05,06","135 Humboldt Avenue, Dorchester, MA","(42.3156495, -71.08803560075552)",42.3156495,-71.08803560075552
Boston: Tynan Elementary School,350181,Public School,Principal,Leslie Gant,650 E. Fourth Street,,South Boston,MA,2127,617-635-8641,617-635-9758,"PK,K,01,02,03,04,05,06","650 E. Fourth Street, South Boston, MA","(42.33469235, -71.03903232504135)",42.33469235,-71.03903232504135
Boston: UP Academy Holland,350167,Public School,Principal,Victoria Thompson,85 Olney Street,,Dorchester,MA,2121,617-635-8832,857-220-3023,"PK,K,01,02,03,04,05","85 Olney Street, Dorchester, MA","(42.306163100000006, -71.0735651796376)",42.306163100000006,-71.0735651796376
Boston: Warren-Prescott K-8 School,350346,Public School,Principal,Michele Davis,50 School Street,,Charlestown,MA,2129,617-635-8346,617-635-9454,"PK,K,01,02,03,04,05,06,07,08","50 School Street, Charlestown, MA","(42.37792245, -71.06450332836786)",42.37792245,-71.06450332836786
Boston: West Zone Early Learning Center,350006,Public School,Principal,Stacia Lemond,200 Heath Street,,Jamaica Plain,MA,2130,617-635-8275,617-635-9370,"PK,K,01","200 Heath Street, Jamaica Plain, MA","(42.326114450000006, -71.10674285895824)",42.326114450000006,-71.10674285895824
Boston: Winship Elementary School,350374,Public School,Principal,Brian Radley,54 Dighton Street,,Brighton,MA,2135,617-635-8399,617-635-8403,"PK,K,01,02,03,04,05,06","54 Dighton Street, Brighton, MA","(42.347503200000006, -71.15538442866122)",42.347503200000006,-71.15538442866122
Boston: Winthrop Elementary School,350180,Public School,Principal,Leah Blake,35 Brookford Street,,Dorchester,MA,2125,617-635-8379,617-635-9396,"PK,K,01,02,03,04,05,06","35 Brookford Street, Dorchester, MA","(42.3181026, -71.0757306)",42.3181026,-71.0757306
Boston: Young Achievers K-8 School,350380,Public School,Principal,Jodi Fortuna,20 Outlook Road,,Mattapan,MA,2126,617-635-6804,617-635-6811,"PK,K,01,02,03,04,05,06,07,08","20 Outlook Road, Mattapan, MA","(42.28232935, -71.09517490375323)",42.28232935,-71.09517490375323
Boston Collegiate Charter (District): Boston Collegiate Charter School,4490305,Charter School,Principal,Jenna Ogundipe,215 Mayhew Street,,Dorchester,MA,2125,617-265-1172,617-265-1176,"05,06,07,08,09,10,11,12","215 Mayhew Street, Dorchester, MA","(42.321589, -71.059874)",42.321589,-71.059874
Boston Day and Evening Academy Charter (District): Boston Day and Evening Academy Charter School,4240505,Charter School,Principal,Alison Hramiec,20 Kearsarge Ave,,Roxbury,MA,2119,617-635-6789,617-635-6380,"09,10,11,12","20 Kearsarge Ave, Roxbury, MA","(42.32701325, -71.0817730970007)",42.32701325,-71.0817730970007
Boston Green Academy Horace Mann Charter School (District): Boston Green Academy Horace Mann Charter School,4110305,Charter School,Principal,Matthew Holzer,20 Warren St.,,Brighton,MA,2135,617-635-9860,617-635-9858,"06,07,08,09,10,11,12","20 Warren St., Brighton, MA","(42.3500616, -71.1454645)",42.3500616,-71.1454645
Boston Preparatory Charter Public (District): Boston Preparatory Charter Public School,4160305,Charter School,Principal,Meekerley Sanon,885 River Street,,Hyde Park,MA,2136,617-333-6688,617-333-6689,"06,07,08,09,10,11,12","885 River Street, Hyde Park, MA","(42.26215715, -71.11032116326963)",42.26215715,-71.11032116326963
Boston Renaissance Charter Public (District): Boston Renaissance Charter Public School,4810550,Charter School,Principal,Alexandra Banhares-Buckmire,1415 Hyde Park Ave,,Hyde Park,MA,2136,617-357-0900,617-357-0949,"PK,K,01,02,03,04,05,06","1415 Hyde Park Ave, Hyde Park, MA","(42.2505157, -71.1263896)",42.2505157,-71.1263896
Bridge Boston Charter School (District): Bridge Boston Charter School,4170205,Charter School,Principal,Orin Gutlerner,435 Warren St.,,Roxbury,MA,2119,857-229-1601,617-674-0861,"PK,K,01,02,03,04,05,06,07,08","435 Warren St., Roxbury, MA","(42.31682225, -71.0832120417672)",42.31682225,-71.0832120417672
KIPP Academy Boston Charter School (District): KIPP Academy Boston Charter School,4630205,Charter School,Principal,Rhonda Barnes,37 Babson Street,KIPP Academy Boston,Mattapan,MA,2126,617-393-5682,617-652-7461,"K,01,02,03,04,05,06,07,08","37 Babson Street, Mattapan, MA","(42.2746633, -71.09258892345918)",42.2746633,-71.09258892345918
UP Academy Charter School of Boston (District): UP Academy Charter School of Boston,4800405,Charter School,Principal,James Frier,215 Dorchester Street,,South Boston,MA,2127,617-635-8819,617-635-8820,"06,07,08","215 Dorchester Street, South Boston, MA","(42.333728300000004, -71.05090619565084)",42.333728300000004,-71.05090619565084
